OBJECT_NAME,OBJECT_ID,EPOCH,MEAN_MOTION,ECCENTRICITY,INCLINATION,RA_OF_ASC_NODE,ARG_OF_PERICENTER,MEAN_ANOMALY,EPHEMERIS_TYPE,CLASSIFICATION_TYPE,NORAD_CAT_ID,ELEMENT_SET_NO,REV_AT_EPOCH,BSTAR,MEAN_MOTION_DOT,MEAN_MOTION_DDOT
PERSEUS-M1,2014-033AF,2026-06-25T19:12:28.861056,14.95660103,.00098021,97.9648,121.0735,268.9220,91.0877,0,U,40039,999,65192,.18354721E-3,.1981E-4,0
POLYITAN-1,2014-033AJ,2026-06-25T14:25:19.998624,15.33535945,.00088721,98.0941,203.6586,118.2869,241.9268,0,U,40042,999,65488,.73318562E-3,.23755E-3,0
TIGRISAT,2014-033AK,2026-06-26T03:27:10.382688,14.85192644,.00501658,97.7841,326.9507,46.5050,314.0319,0,U,40043,999,64695,.21434941E-3,.1823E-4,0
AEROCUBE 6A,2014-033AM,2026-06-26T04:10:21.773568,14.98179733,.00382226,97.7231,344.0286,346.8198,13.2022,0,U,40045,999,64796,.41456202E-3,.4931E-4,0
AEROCUBE 6B,2014-033AN,2026-06-25T16:48:32.488128,14.99639437,.00377837,97.7232,343.3693,339.5695,20.4014,0,U,40046,999,64803,.44228068E-3,.5469E-4,0
CANX-4,2014-034C,2026-06-25T14:17:46.062528,14.81278652,.00125158,98.3112,52.2170,350.4550,9.6421,0,U,40055,999,64577,.1213303E-3,.89E-5,0
CANX-5,2014-034D,2026-06-26T03:13:32.157408,14.81296747,.00124743,98.3114,52.8196,348.9380,11.1555,0,U,40056,999,63666,.11795248E-3,.864E-5,0
UKUBE-1,2014-037F,2026-06-26T06:59:15.120672,15.13686716,.00030132,98.4237,181.5200,118.3387,241.8146,0,U,40074,999,64993,.54071738E-3,.966E-4,0
BRITE-PL2 (HEWELIUSZ),2014-049B,2026-06-26T06:39:22.462848,14.94626891,.00153972,97.9106,289.3476,80.7286,279.5675,0,U,40119,999,64280,.17279012E-3,.1816E-4,0
AEROCUBE 5C,2015-058B,2026-06-26T06:57:28.487520,14.91487981,.01311972,64.7653,234.2715,59.7373,301.6648,0,U,40965,999,36701,.17944749E-3,.1943E-4,0
AEROCUBE 7,2015-058C,2026-06-26T06:14:42.703008,14.95773904,.01209172,64.7607,216.3960,58.0976,303.1834,0,U,40966,999,36731,.27740743E-3,.3412E-4,0
FOX-1A (AO-85),2015-058D,2026-06-26T06:33:40.499424,14.91005511,.01309923,64.7749,250.7459,53.0595,308.2430,0,U,40967,999,11492,.20421051E-3,.2206E-4,0
SINOD-D 1,2015-058E,2026-06-26T07:17:39.391296,14.95954423,.01196525,64.7739,230.3615,49.4822,311.6641,0,U,40968,999,11802,.26209199E-3,.3219E-4,0
SNAP-3 ALICE,2015-058G,2026-06-26T06:29:31.866144,15.62342422,.0025001,64.7505,72.4865,6.2675,353.8779,0,U,40970,999,11830,.16354289E-2,.150337E-2,0
LMRST-SAT,2015-058H,2026-06-26T07:09:16.049952,14.90622958,.01325862,64.7743,247.0246,55.0826,306.2659,0,U,40971,999,11491,.17297762E-3,.1828E-4,0
SNAP-3 EDDIE,2015-058J,2026-06-25T23:56:14.239392,15.63466255,.00254786,64.7418,64.0911,9.7390,350.4246,0,U,40972,999,12040,.15256664E-2,.146581E-2,0
PROPCUBE 3,2015-058K,2026-06-26T05:51:54.312768,14.94299044,.01245263,64.7672,224.2367,56.3400,304.9517,0,U,40973,999,11615,.23648406E-3,.2788E-4,0
BISONSAT,2015-058L,2026-06-26T06:24:16.862112,15.16410925,.00801351,64.7572,144.2838,43.5930,317.1488,0,U,40974,999,11699,.78593628E-3,.16488E-3,0
SNAP-3 JIMI,2015-058M,2026-06-26T07:24:51.418944,15.02377578,.01066384,64.7632,190.9097,51.7103,309.3546,0,U,40975,999,11559,.42455919E-3,.6194E-4,0
PROPCUBE 1 (FLORA),2015-058N,2026-06-25T15:46:07.281408,14.89254859,.01312065,64.7749,268.9851,57.6197,303.7532,0,U,40976,999,11752,.21249912E-3,.2194E-4,0
SINOD-D 3,2015-058P,2026-06-26T06:39:36.945216,14.94063009,.01197858,64.7720,247.4321,54.5205,306.7016,0,U,40977,999,11611,.25216344E-3,.2931E-4,0
HORYU-4,2016-012D,2026-06-26T05:29:28.485888,16.06920325,.00086245,30.9829,12.1754,326.7902,33.2220,0,U,41340,999,57226,.12582789E-2,.1030864E-1,.56724053E-3
RAVAN,2016-067B,2026-06-26T05:53:20.030208,15.55544277,.00028085,97.9879,67.8689,0.3600,359.7654,0,U,41849,999,52910,.84085565E-3,.57736E-3,0
CELTEE 1,2016-067C,2026-06-25T13:39:37.056960,15.19757723,.0001423,98.0670,43.7080,129.0857,231.0503,0,U,41850,999,52715,.29894E-3,.6317E-4,0
OPTICUBE 04,2016-067D,2026-06-26T02:14:26.112192,15.09693853,.00170448,98.0695,29.8416,87.9925,272.3254,0,U,41851,999,52651,.13814259E-3,.2161E-4,0
AEROCUBE 8D,2016-067E,2026-06-26T03:33:15.782976,15.24514880,.00050223,98.0682,48.0013,102.1384,258.0415,0,U,41852,999,52743,.34050891E-3,.8298E-4,0
AEROCUBE 8C,2016-067F,2026-06-26T04:07:07.595616,15.24766784,.00060915,98.0549,45.2426,44.4349,315.7375,0,U,41853,999,52743,.36879668E-3,.9065E-4,0
CORVUS BC2,2017-042X,2026-06-26T05:30:00.209376,15.06350510,.00147197,97.4071,338.2281,82.6574,277.6326,0,U,42846,999,48842,.21483969E-3,.3108E-4,0
CORVUS BC1,2017-042Y,2026-06-25T21:22:34.352832,15.06511248,.00132039,97.4097,338.7225,62.8165,297.4407,0,U,42847,999,48840,.1976415E-3,.2866E-4,0
MAKERSAT 0,2017-073D,2026-06-24T10:17:55.746816,15.32301022,.01048473,97.4622,58.0052,246.7219,112.2959,0,U,43016,999,46757,.42577588E-3,.15733E-3,0
